0 SAUDICOMSAT 4
1 31127U 07012L   13281.58594375  .00000411  00000-0  94464-4 0  9745
2 31127 097.8388 284.5837 0069427 008.4867 351.7490 14.58813952344823
0 SAUDICOMSAT 4
1 31127U 07012L   13283.43785410  .00000448  00000-0  10231-3 0  9753
2 31127 097.8386 286.3321 0069267 002.6507 357.5047 14.58817842345092
0 SAUDICOMSAT 4
1 31127U 07012L   13285.49552799  .00000412  00000-0  94757-4 0  9772
2 31127 097.8382 288.2747 0069104 356.1508 003.9152 14.58819951345394
0 SAUDICOMSAT 4
1 31127U 07012L   13286.79871932  .00000531  00000-0  11943-3 0  9787
2 31127 097.8381 289.5050 0069015 352.0212 007.9885 14.58820873345585
0 SAUDICOMSAT 4
1 31127U 07012L   13287.96473243  .00000579  00000-0  12936-3 0  9796
2 31127 097.8381 290.6056 0068930 348.3263 011.6336 14.58823519345755
0 SAUDICOMSAT 4
1 31127U 07012L   13289.47368789  .00000513  00000-0  11572-3 0  9807
2 31127 097.8382 292.0299 0068813 343.5319 016.3646 14.58826420345974
0 SAUDICOMSAT 4
1 31127U 07012L   13290.50251962  .00000574  00000-0  12845-3 0  9819
2 31127 097.8383 293.0010 0068743 340.2617 019.5925 14.58827391346125
0 SAUDICOMSAT 4
1 31127U 07012L   13292.01147135  .00000587  00000-0  13109-3 0  9822
2 31127 097.8385 294.4252 0068651 335.4553 024.3384 14.58829023346344
0 SAUDICOMSAT 4
1 31127U 07012L   13293.45183310  .00000646  00000-0  14336-3 0  9836
2 31127 097.8387 295.7848 0068552 330.8588 028.8794 14.58831124346550
0 SAUDICOMSAT 4
1 31127U 07012L   13294.48066225  .00000613  00000-0  13650-3 0  9848
2 31127 097.8388 296.7559 0068504 327.5869 032.1132 14.58832807346703
0 SAUDICOMSAT 4
1 31127U 07012L   13295.50949026  .00000667  00000-0  14776-3 0  9851
2 31127 097.8387 297.7272 0068463 324.3106 035.3527 14.58834328346857
